SL-16 R/B               
1 23405U 94077B   26200.06071378  .00000136  00000+0  94117-4 0  9998
2 23405  70.9821  76.1069 0004134 300.4816  59.5898 14.15574813634822
ARIANE 40+ R/B          
1 23561U 95021B   26200.42797943  .00000104  00000+0  47038-4 0  9999
2 23561  98.4398 270.0349 0007965 105.8575 264.6802 14.39848903638209
SL-16 R/B               
1 23705U 95058B   26200.56868674  .00000282  00000+0  16864-3 0  9993
2 23705  71.0206 263.3731 0014677 277.1912  82.7543 14.15511261586515
SL-16 R/B               
1 24298U 96051B   26200.46661385  .00000140  00000+0  10228-3 0  9995
2 24298  70.7642 256.3379 0018088 292.5551  67.3654 14.12458195540259
ORBVIEW 2 (SEASTAR)     
1 24883U 97037A   26200.42992537  .00000089  00000+0  47321-4 0  9999
2 24883  98.8719   8.3474 0002934  52.2210 307.9240 14.35567922527378
SL-16 R/B               
1 25400U 98043G   26200.49725480  .00000001  00000+0  19376-4 0  9994
2 25400  98.8380 154.9377 0009822 359.2463   0.8700 14.26073081457775
SL-16 R/B               
1 25407U 98045B   26200.44427596  .00000018  00000+0  33311-4 0  9998
2 25407  71.0102 264.4928 0007962 200.2609 159.8200 14.16204968445750
ISS (ZARYA)             
1 25544U 98067A   26200.25015283  .00004118  00000+0  82726-4 0  9998
2 25544  51.6315 141.4207 0006817 313.5383  46.5039 15.49048208576725
CZ-4B R/B               
1 25732U 99025C   26200.36828157  .00000007  00000+0  24126-4 0  9999
2 25732  98.6469 241.3943 0036431 327.5521  42.7976 14.18288125406837
OKEAN-O                 
1 25860U 99039A   26200.51874589  .00000220  00000+0  35567-4 0  9991
2 25860  97.9297 258.9425 0000886  97.2423 262.8890 14.80500010453893
SL-16 R/B               
1 25861U 99039B   26200.17292535  .00000194  00000+0  31349-4 0  9993
2 25861  97.9819 258.9418 0014650 185.2644 174.8417 14.81872932456338
DELTA 2 R/B             
1 25876U 99041E   26200.23923138  .00000823  00000+0  17141-3 0  9991
2 25876  51.7612 135.7368 0501464  16.6961 344.9829 14.12094681381618
HELIOS 1B               
1 25977U 99064A   26200.32084333  .00000576  00000+0  69019-4 0  9990
2 25977  98.1579 106.3869 0001729  50.0820 310.0547 14.88080685704838
TERRA                   
1 25994U 99068A   26200.63204532  .00000143  00000+0  38001-4 0  9999
2 25994  97.9438 248.8889 0003567 114.1639  37.2751 14.61125566414342
SL-16 R/B               
1 26070U 00006B   26200.35249965  .00000127  00000+0  88648-4 0  9991
2 26070  71.0005 180.9915 0017362 334.2430  25.7827 14.15838426367190
TITAN 4B R/B            
1 26474U 00047B   26200.57751051  .00001191  00000+0  79218-4 0  9997
2 26474  67.9873  29.3888 0045729 254.3754 105.2346 15.10345016412824
ENVISAT                 
1 27386U 02009A   26200.45108514  .00000026  00000+0  22316-4 0  9990
2 27386  98.3848 151.0530 0001319  82.6973  28.6571 14.39071270278125
IDEFIX & ARIANE 42P R/B 
1 27422U 02021B   26200.57099649  .00000080  00000+0  46844-4 0  9998
2 27422  98.5941 137.7041 0012177 153.8039 206.3762 14.31094811262889
AQUA                    
1 27424U 02022A   26200.62659245  .00000315  00000+0  72466-4 0  9991
2 27424  98.4299 170.5623 0001279 101.7999 313.2906 14.62131948288013
CZ-4B R/B               
1 27432U 02024C   26200.13257590 -.00000006  00000+0  19594-4 0  9996
2 27432  98.8682 252.7423 0050280  10.8470   8.9878 14.14568524247824
MIDORI II (ADEOS-II)    
1 27597U 02056A   26200.47861288  .00000090  00000+0  53183-4 0  9999
2 27597  98.7897 160.0165 0001308  35.7966 324.3303 14.29364190229120
H-2A R/B                
1 27601U 02056E   26200.62232843  .00000117  00000+0  55389-4 0  9991
2 27601  98.3330 156.1178 0071104 127.8902  44.4931 14.33835280233016
CZ-4B R/B               
1 28059U 03049C   26200.48134921  .00000106  00000+0  35968-4 0  9993
2 28059  98.6912 200.6159 0047920 188.0890 171.9538 14.55117628205764
CZ-2C R/B               
1 28222U 04012C   26200.22066781  .00101580  00000+0  40845-3 0  9993
2 28222  97.7044 279.7837 0010948 180.5748 179.5511 15.86074606224962
SL-16 R/B               
1 28353U 04021B   26200.61804284 -.00000141  00000+0 -48785-4 0  9994
2 28353  71.0029 315.6270 0006169 221.2582 138.8075 14.14616184141497
CZ-4B R/B               
1 28415U 04035C   26200.35791060  .00003709  00000+0  12475-3 0  9993
2 28415  97.3353 233.0756 0029572 217.2253 142.6939 15.31023880200046
CZ-2C R/B               
1 28480U 04046B   26200.44531390  .00000061  00000+0  37143-4 0  9993
2 28480  98.1911 107.2048 0140345 124.8925 236.5541 14.27034029127292
ARIANE 5 R/B            
1 28499U 04049H   26200.46264647  .00000265  00000+0  36174-4 0  9995
2 28499  98.2746  13.9682 0082515 284.2117  74.9941 14.85481545165354
CZ-2D R/B               
1 28738U 05024B   26200.50515275  .00039981  00000+0  29233-3 0  9990
2 28738  97.3473 221.6335 0003182 181.0506 179.0752 15.73126579160419
ALOS (DAICHI)           
1 28931U 06002A   26200.48911837  .00000476  00000+0  87543-4 0  9999
2 28931  98.1339 155.9603 0000922 106.0781 254.0527 14.70106637 92846
