OBJECT_NAME,OBJECT_ID,EPOCH,MEAN_MOTION,ECCENTRICITY,INCLINATION,RA_OF_ASC_NODE,ARG_OF_PERICENTER,MEAN_ANOMALY,EPHEMERIS_TYPE,CLASSIFICATION_TYPE,NORAD_CAT_ID,ELEMENT_SET_NO,REV_AT_EPOCH,BSTAR,MEAN_MOTION_DOT,MEAN_MOTION_DDOT
SL-16 R/B,1994-077B,2026-07-19T01:27:25.670592,14.15574813,.00041348,70.9821,76.1069,300.4816,59.5898,0,U,23405,999,63482,.94117413E-4,.136E-5,0
ARIANE 40+ R/B,1995-021B,2026-07-19T10:16:17.422752,14.39848903,.00079658,98.4398,270.0349,105.8575,264.6802,0,U,23561,999,63820,.47037836E-4,.104E-5,0
SL-16 R/B,1995-058B,2026-07-19T13:38:54.534336,14.15511261,.00146775,71.0206,263.3731,277.1912,82.7543,0,U,23705,999,58651,.16863539E-3,.282E-5,0
SL-16 R/B,1996-051B,2026-07-19T11:11:55.436640,14.12458195,.0018088,70.7642,256.3379,292.5551,67.3654,0,U,24298,999,54025,.10228236E-3,.14E-5,0
ORBVIEW 2 (SEASTAR),1997-037A,2026-07-19T10:19:05.551968,14.35567922,.0002934,98.8719,8.3474,52.2210,307.9240,0,U,24883,999,52737,.47321019E-4,.89E-6,0
SL-16 R/B,1998-043G,2026-07-19T11:56:02.814720,14.26073081,.00098228,98.8380,154.9377,359.2463,0.8700,0,U,25400,999,45777,.19376098E-4,.1E-7,0
SL-16 R/B,1998-045B,2026-07-19T10:39:45.442944,14.16204968,.00079627,71.0102,264.4928,200.2609,159.8200,0,U,25407,999,44575,.33311262E-4,.18E-6,0
ISS (ZARYA),1998-067A,2026-07-19T06:00:13.204512,15.49048208,.0006817,51.6315,141.4207,313.5383,46.5039,0,U,25544,999,57672,.82726347E-4,.4118E-4,0
CZ-4B R/B,1999-025C,2026-07-19T08:50:19.527648,14.18288125,.0036431,98.6469,241.3943,327.5521,42.7976,0,U,25732,999,40683,.24125984E-4,.7E-7,0
OKEAN-O,1999-039A,2026-07-19T12:26:59.644896,14.80500010,.00008864,97.9297,258.9425,97.2423,262.8890,0,U,25860,999,45389,.35567041E-4,.22E-5,0
SL-16 R/B,1999-039B,2026-07-19T04:09:00.750240,14.81872932,.00146505,97.9819,258.9418,185.2644,174.8417,0,U,25861,999,45633,.31349441E-4,.194E-5,0
DELTA 2 R/B,1999-041E,2026-07-19T05:44:29.591232,14.12094681,.05014646,51.7612,135.7368,16.6961,344.9829,0,U,25876,999,38161,.17141434E-3,.823E-5,0
HELIOS 1B,1999-064A,2026-07-19T07:42:00.863712,14.88080685,.00017296,98.1579,106.3869,50.0820,310.0547,0,U,25977,999,70483,.69019155E-4,.576E-5,0
TERRA,1999-068A,2026-07-19T15:10:08.715648,14.61125566,.0003567,97.9438,248.8889,114.1639,37.2751,0,U,25994,999,41434,.38000805E-4,.143E-5,0
SL-16 R/B,2000-006B,2026-07-19T08:27:35.969760,14.15838426,.00173626,71.0005,180.9915,334.2430,25.7827,0,U,26070,999,36719,.88648459E-4,.127E-5,0
TITAN 4B R/B,2000-047B,2026-07-19T13:51:36.908064,15.10345016,.00457297,67.9873,29.3888,254.3754,105.2346,0,U,26474,999,41282,.79218456E-4,.1191E-4,0
ENVISAT,2002-009A,2026-07-19T10:49:33.756096,14.39071270,.00013193,98.3848,151.0530,82.6973,28.6571,0,U,27386,999,27812,.22315905E-4,.26E-6,0
IDEFIX & ARIANE 42P R/B,2002-021B,2026-07-19T13:42:14.096736,14.31094811,.00121777,98.5941,137.7041,153.8039,206.3762,0,U,27422,999,26288,.46843937E-4,.8E-6,0
AQUA,2002-022A,2026-07-19T15:02:17.587680,14.62131948,.00012792,98.4299,170.5623,101.7999,313.2906,0,U,27424,999,28801,.72465962E-4,.315E-5,0
CZ-4B R/B,2002-024C,2026-07-19T03:10:54.557760,14.14568524,.00502802,98.8682,252.7423,10.8470,8.9878,0,U,27432,999,24782,.1959357E-4,-.6E-7,0
MIDORI II (ADEOS-II),2002-056A,2026-07-19T11:29:12.152832,14.29364190,.00013083,98.7897,160.0165,35.7966,324.3303,0,U,27597,999,22912,.53183079E-4,.9E-6,0
H-2A R/B,2002-056E,2026-07-19T14:56:09.176352,14.33835280,.00711044,98.3330,156.1178,127.8902,44.4931,0,U,27601,999,23301,.55388654E-4,.117E-5,0
CZ-4B R/B,2003-049C,2026-07-19T11:33:08.571744,14.55117628,.00479206,98.6912,200.6159,188.0890,171.9538,0,U,28059,999,20576,.35968233E-4,.106E-5,0
CZ-2C R/B,2004-012C,2026-07-19T05:17:45.698784,15.86074606,.00109484,97.7044,279.7837,180.5748,179.5511,0,U,28222,999,22496,.40844603E-3,.10158E-2,0
SL-16 R/B,2004-021B,2026-07-19T14:49:58.901376,14.14616184,.00061693,71.0029,315.6270,221.2582,138.8075,0,U,28353,999,14149,-.48785255E-4,-.141E-5,0
CZ-4B R/B,2004-035C,2026-07-19T08:35:23.475840,15.31023880,.00295722,97.3353,233.0756,217.2253,142.6939,0,U,28415,999,20004,.12475085E-3,.3709E-4,0
CZ-2C R/B,2004-046B,2026-07-19T10:41:15.120960,14.27034029,.01403456,98.1911,107.2048,124.8925,236.5541,0,U,28480,999,12729,.37143261E-4,.61E-6,0
ARIANE 5 R/B,2004-049H,2026-07-19T11:06:12.655008,14.85481545,.00825156,98.2746,13.9682,284.2117,74.9941,0,U,28499,999,16535,.36173642E-4,.265E-5,0
CZ-2D R/B,2005-024B,2026-07-19T12:07:25.197600,15.73126579,.0003182,97.3473,221.6335,181.0506,179.0752,0,U,28738,999,16041,.29232726E-3,.39981E-3,0
ALOS (DAICHI),2006-002A,2026-07-19T11:44:19.827168,14.70106637,.00009226,98.1339,155.9603,106.0781,254.0527,0,U,28931,999,9284,.8754303E-4,.476E-5,0
